[{"OBJECT_NAME":"STARLINK-5615","OBJECT_ID":"2023-014AL","EPOCH":"2026-03-09T10:31:03.184320","MEAN_MOTION":14.9832781,"ECCENTRICITY":0.00029537,"INCLINATION":69.9995,"RA_OF_ASC_NODE":85.1293,"ARG_OF_PERICENTER":271.2407,"MEAN_ANOMALY":88.8414,"EPHEMERIS_TYPE":0,"CLASSIFICATION_TYPE":"U","NORAD_CAT_ID":55425,"ELEMENT_SET_NO":999,"REV_AT_EPOCH":17152,"BSTAR":-2.8319539e-5,"MEAN_MOTION_DOT":-4.31e-6,"MEAN_MOTION_DDOT":0},{"OBJECT_NAME":"SITRO-AIS 18","OBJECT_ID":"2024-199BH","EPOCH":"2026-03-09T22:56:51.354816","MEAN_MOTION":14.97350577,"ECCENTRICITY":0.00069154,"INCLINATION":97.331,"RA_OF_ASC_NODE":274.6581,"ARG_OF_PERICENTER":53.7115,"MEAN_ANOMALY":306.4746,"EPHEMERIS_TYPE":0,"CLASSIFICATION_TYPE":"U","NORAD_CAT_ID":61790,"ELEMENT_SET_NO":999,"REV_AT_EPOCH":11718,"BSTAR":0.00032194999,"MEAN_MOTION_DOT":3.687e-5,"MEAN_MOTION_DDOT":0}]
